{
  "type": "FeatureCollection",
  "features": [
    {
      "type": "Feature",
      "properties": {
        "norad_id": 37238,
        "name": "INTELSAT 17 (IS-17)",
        "group": "intelsat",
        "lat": 0.01453328993371104,
        "lon": 83.44798203993783,
        "alt_km": 35796.69355361805,
        "timestamp": "2025-12-23T18:59:31.657431+00:00",
        "meta_object_name": "INTELSAT 17 (IS-17)",
        "meta_object_id": "2010-065B",
        "meta_epoch": "2025-12-23T03:10:28.621344",
        "meta_mean_motion": 1.00271528,
        "meta_eccentricity": 0.00026191,
        "meta_inclination": 0.0074,
        "meta_ra_of_asc_node": 301.2725,
        "meta_arg_of_pericenter": 339.8903,
        "meta_mean_anomaly": 284.3707,
        "meta_ephemeris_type": 0,
        "meta_classification_type": "U",
        "meta_norad_cat_id": 37238,
        "meta_element_set_no": 999,
        "meta_rev_at_epoch": 5148,
        "meta_bstar": 0,
        "meta_mean_motion_dot": 2e-07,
        "meta_mean_motion_ddot": 0,
        "tle_line1": "1 37238U 10065B   25357.13227571  .00000020  00000+0  00000+0 0  9995",
        "tle_line2": "2 37238   0.0074 301.2725 0002619 339.8903 284.3707  1.00271528 51484"
      },
      "geometry": {
        "type": "Point",
        "coordinates": [
          83.44798203993783,
          0.01453328993371104
        ]
      }
    },
    {
      "type": "Feature",
      "properties": {
        "norad_id": 37392,
        "name": "INTELSAT 28 (IS-28)",
        "group": "intelsat",
        "lat": -1.3446718588309872,
        "lon": -14.231190613937995,
        "alt_km": 35781.69807510831,
        "timestamp": "2025-12-23T18:59:31.657441+00:00",
        "meta_object_name": "INTELSAT 28 (IS-28)",
        "meta_object_id": "2011-016A",
        "meta_epoch": "2025-12-23T02:42:31.296672",
        "meta_mean_motion": 1.00268957,
        "meta_eccentricity": 0.00037619,
        "meta_inclination": 1.3497,
        "meta_ra_of_asc_node": 84.9442,
        "meta_arg_of_pericenter": 190.6388,
        "meta_mean_anomaly": 185.239,
        "meta_ephemeris_type": 0,
        "meta_classification_type": "U",
        "meta_norad_cat_id": 37392,
        "meta_element_set_no": 999,
        "meta_rev_at_epoch": 5152,
        "meta_bstar": 0,
        "meta_mean_motion_dot": -2.05e-06,
        "meta_mean_motion_ddot": 0,
        "tle_line1": "1 37392U 11016A   25357.11286223 -.00000205  00000+0  00000+0 0  9996",
        "tle_line2": "2 37392   1.3497  84.9442 0003761 190.6388 185.2390  1.00268957 51522"
      },
      "geometry": {
        "type": "Point",
        "coordinates": [
          -14.231190613937995,
          -1.3446718588309872
        ]
      }
    },
    {
      "type": "Feature",
      "properties": {
        "norad_id": 37834,
        "name": "INTELSAT 18 (IS-18)",
        "group": "intelsat",
        "lat": -0.02195255157574058,
        "lon": -162.5725335779697,
        "alt_km": 35786.082165519176,
        "timestamp": "2025-12-23T18:59:31.657452+00:00",
        "meta_object_name": "INTELSAT 18 (IS-18)",
        "meta_object_id": "2011-056A",
        "meta_epoch": "2025-12-23T03:43:03.000576",
        "meta_mean_motion": 1.0027138,
        "meta_eccentricity": 0.00017336,
        "meta_inclination": 0.0267,
        "meta_ra_of_asc_node": 284.4776,
        "meta_arg_of_pericenter": 2.5253,
        "meta_mean_anomaly": 40.705,
        "meta_ephemeris_type": 0,
        "meta_classification_type": "U",
        "meta_norad_cat_id": 37834,
        "meta_element_set_no": 999,
        "meta_rev_at_epoch": 5204,
        "meta_bstar": 0,
        "meta_mean_motion_dot": 7.4e-07,
        "meta_mean_motion_ddot": 0,
        "tle_line1": "1 37834U 11056A   25357.15489584  .00000074  00000+0  00000+0 0  9993",
        "tle_line2": "2 37834   0.0267 284.4776 0001733   2.5253  40.7050  1.00271380 52040"
      },
      "geometry": {
        "type": "Point",
        "coordinates": [
          -162.5725335779697,
          -0.02195255157574058
        ]
      }
    },
    {
      "type": "Feature",
      "properties": {
        "norad_id": 38098,
        "name": "INTELSAT 22 (IS-22)",
        "group": "intelsat",
        "lat": 0.041524004763235874,
        "lon": 89.54333209210503,
        "alt_km": 35793.85481603156,
        "timestamp": "2025-12-23T18:59:31.657462+00:00",
        "meta_object_name": "INTELSAT 22 (IS-22)",
        "meta_object_id": "2012-011A",
        "meta_epoch": "2025-12-23T03:12:13.453056",
        "meta_mean_motion": 1.00270392,
        "meta_eccentricity": 0.0001903,
        "meta_inclination": 0.0259,
        "meta_ra_of_asc_node": 38.5276,
        "meta_arg_of_pericenter": 254.4905,
        "meta_mean_anomaly": 279.052,
        "meta_ephemeris_type": 0,
        "meta_classification_type": "U",
        "meta_norad_cat_id": 38098,
        "meta_element_set_no": 999,
        "meta_rev_at_epoch": 542,
        "meta_bstar": 0,
        "meta_mean_motion_dot": 0,
        "meta_mean_motion_ddot": 0,
        "tle_line1": "1 38098U 12011A   25357.13348904  .00000000  00000+0  00000+0 0  9995",
        "tle_line2": "2 38098   0.0259  38.5276 0001903 254.4905 279.0520  1.00270392  5429"
      },
      "geometry": {
        "type": "Point",
        "coordinates": [
          89.54333209210503,
          0.041524004763235874
        ]
      }
    },
    {
      "type": "Feature",
      "properties": {
        "norad_id": 38356,
        "name": "INTELSAT 19 (IS-19)",
        "group": "intelsat",
        "lat": -0.012128167159337384,
        "lon": -176.5774362081137,
        "alt_km": 35784.88254725641,
        "timestamp": "2025-12-23T18:59:31.657473+00:00",
        "meta_object_name": "INTELSAT 19 (IS-19)",
        "meta_object_id": "2012-030A",
        "meta_epoch": "2025-12-23T03:39:03.383136",
        "meta_mean_motion": 1.00272137,
        "meta_eccentricity": 0.00028482,
        "meta_inclination": 0.017,
        "meta_ra_of_asc_node": 316.6766,
        "meta_arg_of_pericenter": 311.487,
        "meta_mean_anomaly": 44.5494,
        "meta_ephemeris_type": 0,
        "meta_classification_type": "U",
        "meta_norad_cat_id": 38356,
        "meta_element_set_no": 999,
        "meta_rev_at_epoch": 4868,
        "meta_bstar": 0,
        "meta_mean_motion_dot": -3.5e-07,
        "meta_mean_motion_ddot": 0,
        "tle_line1": "1 38356U 12030A   25357.15212249 -.00000035  00000+0  00000+0 0  9996",
        "tle_line2": "2 38356   0.0170 316.6766 0002848 311.4870  44.5494  1.00272137 48685"
      },
      "geometry": {
        "type": "Point",
        "coordinates": [
          -176.5774362081137,
          -0.012128167159337384
        ]
      }
    },
    {
      "type": "Feature",
      "properties": {
        "norad_id": 38740,
        "name": "INTELSAT 20 (IS-20)",
        "group": "intelsat",
        "lat": 0.0214481427516347,
        "lon": 85.90577441609283,
        "alt_km": 35787.686686158275,
        "timestamp": "2025-12-23T18:59:31.657484+00:00",
        "meta_object_name": "INTELSAT 20 (IS-20)",
        "meta_object_id": "2012-043A",
        "meta_epoch": "2025-12-23T03:11:13.549344",
        "meta_mean_motion": 1.0027156,
        "meta_eccentricity": 0.00030742,
        "meta_inclination": 0.0106,
        "meta_ra_of_asc_node": 57.5703,
        "meta_arg_of_pericenter": 125.3187,
        "meta_mean_anomaly": 25.3339,
        "meta_ephemeris_type": 0,
        "meta_classification_type": "U",
        "meta_norad_cat_id": 38740,
        "meta_element_set_no": 999,
        "meta_rev_at_epoch": 4898,
        "meta_bstar": 0,
        "meta_mean_motion_dot": -3e-08,
        "meta_mean_motion_ddot": 0,
        "tle_line1": "1 38740U 12043A   25357.13279571 -.00000003  00000+0  00000+0 0  9991",
        "tle_line2": "2 38740   0.0106  57.5703 0003074 125.3187  25.3339  1.00271560 48985"
      },
      "geometry": {
        "type": "Point",
        "coordinates": [
          85.90577441609283,
          0.0214481427516347
        ]
      }
    },
    {
      "type": "Feature",
      "properties": {
        "norad_id": 38749,
        "name": "INTELSAT 21 (IS-21)",
        "group": "intelsat",
        "lat": -0.006263279932380516,
        "lon": -40.535160675212566,
        "alt_km": 35782.3671435593,
        "timestamp": "2025-12-23T18:59:31.657495+00:00",
        "meta_object_name": "INTELSAT 21 (IS-21)",
        "meta_object_id": "2012-045A",
        "meta_epoch": "2025-12-23T06:39:34.020576",
        "meta_mean_motion": 1.00270974,
        "meta_eccentricity": 0.00015629,
        "meta_inclination": 0.0176,
        "meta_ra_of_asc_node": 300.4041,
        "meta_arg_of_pericenter": 326.1911,
        "meta_mean_anomaly": 227.3669,
        "meta_ephemeris_type": 0,
        "meta_classification_type": "U",
        "meta_norad_cat_id": 38749,
        "meta_element_set_no": 999,
        "meta_rev_at_epoch": 4876,
        "meta_bstar": 0,
        "meta_mean_motion_dot": -2.64e-06,
        "meta_mean_motion_ddot": 0,
        "tle_line1": "1 38749U 12045A   25357.27747709 -.00000264  00000+0  00000+0 0  9999",
        "tle_line2": "2 38749   0.0176 300.4041 0001562 326.1911 227.3669  1.00270974 48766"
      },
      "geometry": {
        "type": "Point",
        "coordinates": [
          -40.535160675212566,
          -0.006263279932380516
        ]
      }
    }
  ]
}